format  = 'OEF2.0'       ! file format
rectype = 'ML'           ! record type (1L/ML)
refsys  = ECLM J2000     ! default reference system
END_OF_HEADER
594938
! Equinoctial elements: a, e*sin(LP), e*cos(LP), tan(i/2)*sin(LN), tan(i/2)*cos(LN), mean long.
 EQU   2.1862529035694496E+00  -0.471373155350099   0.012255889979474    0.239306790837725   -0.113152710184792  290.676321465681
 MJD     59400.000000000 TDT
 MAG  18.247  0.150
! Non-gravitational parameters: model used, number of model parameters, dimension
 LSP   0  0    6
! RMS    2.98765E-08   1.00023E-07   1.06041E-07   9.33318E-08   8.15569E-08   1.06268E-05
! EIG   1.58152E-08   5.60847E-08   7.91052E-08   8.35728E-08   9.48634E-08   1.06274E-05
! WEA   0.00210  -0.00513  -0.00821  -0.00052   0.00258  -0.99995
 COV   8.926032596025369E-16 -2.116580579490103E-15 -1.938181671883124E-15
 COV  -4.597730803125709E-16  2.974833931766122E-16 -2.365972276087561E-13
 COV   1.000464880124173E-14  4.150592709094470E-15  9.404736109881860E-16
 COV  -1.584185284406097E-15  5.797980227829348E-13  1.124476071432883E-14
 COV   2.264867193405029E-16 -1.343213449631762E-15  9.272230533345568E-13
 COV   8.710824053725137E-15 -2.936696827984569E-16  5.917339650233994E-14
 COV   6.651523512290038E-15 -2.911570724179466E-13  1.129293886865285E-10
 NOR   3.916717371140058E+15  4.967409587823874E+14  2.566309576386154E+13
 NOR   1.193251429791149E+14  2.132532070744408E+14  5.932104519808896E+12
 NOR   2.082779181547438E+14  2.762370598028001E+13  5.167038049986563E+12
 NOR   2.468178063103415E+13 -1.944967993490093E+11  2.950016456726281E+14
 NOR   6.962051713585639E+12 -5.041753521321828E+13 -2.643847390917052E+12
 NOR   1.197856857440219E+14  8.026550471269813E+12  1.242337884113100E+11
 NOR   1.902755905108481E+14  1.220391769945428E+12  4.707099732740131E+10
